[{"OBJECT_NAME":"GAOFEN-6","OBJECT_ID":"2018-048A","EPOCH":"2026-04-26T20:11:11.057280","MEAN_MOTION":14.76567906,"ECCENTRICITY":0.0011773,"INCLINATION":97.779,"RA_OF_ASC_NODE":181.3981,"ARG_OF_PERICENTER":348.7606,"MEAN_ANOMALY":11.334,"EPHEMERIS_TYPE":0,"CLASSIFICATION_TYPE":"U","NORAD_CAT_ID":43484,"ELEMENT_SET_NO":999,"REV_AT_EPOCH":42581,"BSTAR":4.9501e-5,"MEAN_MOTION_DOT":2.96e-6,"MEAN_MOTION_DDOT":0},{"OBJECT_NAME":"GAOFEN-11 01","OBJECT_ID":"2018-063A","EPOCH":"2026-04-26T20:52:10.407360","MEAN_MOTION":15.53777814,"ECCENTRICITY":0.0004975,"INCLINATION":97.1329,"RA_OF_ASC_NODE":183.9416,"ARG_OF_PERICENTER":144.6039,"MEAN_ANOMALY":215.5547,"EPHEMERIS_TYPE":0,"CLASSIFICATION_TYPE":"U","NORAD_CAT_ID":43585,"ELEMENT_SET_NO":999,"REV_AT_EPOCH":43237,"BSTAR":0.00019455,"MEAN_MOTION_DOT":0.00012388,"MEAN_MOTION_DDOT":0},{"OBJECT_NAME":"ICESAT-2","OBJECT_ID":"2018-070A","EPOCH":"2026-04-26T19:39:56.948832","MEAN_MOTION":15.28314774,"ECCENTRICITY":0.0002172,"INCLINATION":92.002,"RA_OF_ASC_NODE":277.1226,"ARG_OF_PERICENTER":58.6043,"MEAN_ANOMALY":301.5419,"EPHEMERIS_TYPE":0,"CLASSIFICATION_TYPE":"U","NORAD_CAT_ID":43613,"ELEMENT_SET_NO":999,"REV_AT_EPOCH":42461,"BSTAR":0.00011966,"MEAN_MOTION_DOT":3.301e-5,"MEAN_MOTION_DDOT":0},{"OBJECT_NAME":"HYSIS","OBJECT_ID":"2018-096A","EPOCH":"2026-04-26T20:23:37.238784","MEAN_MOTION":14.78667114,"ECCENTRICITY":8.19e-5,"INCLINATION":97.9865,"RA_OF_ASC_NODE":183.9923,"ARG_OF_PERICENTER":78.8763,"MEAN_ANOMALY":281.254,"EPHEMERIS_TYPE":0,"CLASSIFICATION_TYPE":"U","NORAD_CAT_ID":43719,"ELEMENT_SET_NO":999,"REV_AT_EPOCH":39983,"BSTAR":9.0586e-5,"MEAN_MOTION_DOT":6.12e-6,"MEAN_MOTION_DDOT":0},{"OBJECT_NAME":"KAZSTSAT","OBJECT_ID":"2018-099AB","EPOCH":"2026-04-26T14:12:25.821792","MEAN_MOTION":14.99776516,"ECCENTRICITY":0.0003986,"INCLINATION":97.4368,"RA_OF_ASC_NODE":150.8536,"ARG_OF_PERICENTER":194.6836,"MEAN_ANOMALY":165.4273,"EPHEMERIS_TYPE":0,"CLASSIFICATION_TYPE":"U","NORAD_CAT_ID":43783,"ELEMENT_SET_NO":999,"REV_AT_EPOCH":40357,"BSTAR":8.3711e-5,"MEAN_MOTION_DOT":9.79e-6,"MEAN_MOTION_DDOT":0},{"OBJECT_NAME":"SAUDISAT 5A","OBJECT_ID":"2018-102A","EPOCH":"2026-04-26T19:33:49.584672","MEAN_MOTION":15.27514823,"ECCENTRICITY":0.000847,"INCLINATION":97.3108,"RA_OF_ASC_NODE":179.3961,"ARG_OF_PERICENTER":323.9745,"MEAN_ANOMALY":36.0922,"EPHEMERIS_TYPE":0,"CLASSIFICATION_TYPE":"U","NORAD_CAT_ID":43831,"ELEMENT_SET_NO":999,"REV_AT_EPOCH":40783,"BSTAR":0.00022969,"MEAN_MOTION_DOT":6.115e-5,"MEAN_MOTION_DDOT":0},{"OBJECT_NAME":"SAUDISAT 5B","OBJECT_ID":"2018-102C","EPOCH":"2026-04-26T20:14:05.327808","MEAN_MOTION":15.27800697,"ECCENTRICITY":0.0009219,"INCLINATION":97.321,"RA_OF_ASC_NODE":182.4007,"ARG_OF_PERICENTER":325.7465,"MEAN_ANOMALY":34.3179,"EPHEMERIS_TYPE":0,"CLASSIFICATION_TYPE":"U","NORAD_CAT_ID":43833,"ELEMENT_SET_NO":999,"REV_AT_EPOCH":40795,"BSTAR":0.00024153,"MEAN_MOTION_DOT":6.492e-5,"MEAN_MOTION_DDOT":0},{"OBJECT_NAME":"GAOFEN-10R","OBJECT_ID":"2019-066A","EPOCH":"2026-04-26T21:00:13.505184","MEAN_MOTION":14.82943152,"ECCENTRICITY":0.0004546,"INCLINATION":98.0464,"RA_OF_ASC_NODE":70.0961,"ARG_OF_PERICENTER":316.4604,"MEAN_ANOMALY":43.625,"EPHEMERIS_TYPE":0,"CLASSIFICATION_TYPE":"U","NORAD_CAT_ID":44622,"ELEMENT_SET_NO":999,"REV_AT_EPOCH":35477,"BSTAR":0.00017712,"MEAN_MOTION_DOT":1.383e-5,"MEAN_MOTION_DDOT":0},{"OBJECT_NAME":"CARTOSAT-3","OBJECT_ID":"2019-081A","EPOCH":"2026-04-26T20:23:18.261024","MEAN_MOTION":15.19288197,"ECCENTRICITY":0.0011182,"INCLINATION":97.434,"RA_OF_ASC_NODE":179.5306,"ARG_OF_PERICENTER":336.7002,"MEAN_ANOMALY":23.3724,"EPHEMERIS_TYPE":0,"CLASSIFICATION_TYPE":"U","NORAD_CAT_ID":44804,"ELEMENT_SET_NO":999,"REV_AT_EPOCH":35567,"BSTAR":0.00017536,"MEAN_MOTION_DOT":3.637e-5,"MEAN_MOTION_DDOT":0},{"OBJECT_NAME":"GAOFEN-12 01","OBJECT_ID":"2019-082A","EPOCH":"2026-04-26T20:20:07.972800","MEAN_MOTION":14.80415606,"ECCENTRICITY":0.0001465,"INCLINATION":97.812,"RA_OF_ASC_NODE":124.5811,"ARG_OF_PERICENTER":127.6283,"MEAN_ANOMALY":232.5062,"EPHEMERIS_TYPE":0,"CLASSIFICATION_TYPE":"U","NORAD_CAT_ID":44819,"ELEMENT_SET_NO":999,"REV_AT_EPOCH":34649,"BSTAR":6.7253e-5,"MEAN_MOTION_DOT":4.63e-6,"MEAN_MOTION_DDOT":0},{"OBJECT_NAME":"CSG-1","OBJECT_ID":"2019-092A","EPOCH":"2026-04-26T19:27:38.780064","MEAN_MOTION":14.82155029,"ECCENTRICITY":0.0001301,"INCLINATION":97.8888,"RA_OF_ASC_NODE":301.1565,"ARG_OF_PERICENTER":93.3097,"MEAN_ANOMALY":266.8265,"EPHEMERIS_TYPE":0,"CLASSIFICATION_TYPE":"U","NORAD_CAT_ID":44873,"ELEMENT_SET_NO":999,"REV_AT_EPOCH":34386,"BSTAR":7.2433e-5,"MEAN_MOTION_DOT":5.24e-6,"MEAN_MOTION_DDOT":0},{"OBJECT_NAME":"NEMO-HD","OBJECT_ID":"2020-061F","EPOCH":"2026-04-26T20:49:07.866624","MEAN_MOTION":15.43547071,"ECCENTRICITY":0.0001473,"INCLINATION":97.1962,"RA_OF_ASC_NODE":179.3685,"ARG_OF_PERICENTER":132.0848,"MEAN_ANOMALY":228.0526,"EPHEMERIS_TYPE":0,"CLASSIFICATION_TYPE":"U","NORAD_CAT_ID":46277,"ELEMENT_SET_NO":999,"REV_AT_EPOCH":31406,"BSTAR":0.00028881,"MEAN_MOTION_DOT":0.00012885,"MEAN_MOTION_DDOT":0},{"OBJECT_NAME":"SENTINEL-6A","OBJECT_ID":"2020-086A","EPOCH":"2026-04-26T17:04:36.448608","MEAN_MOTION":12.80930901,"ECCENTRICITY":0.0007782,"INCLINATION":66.0413,"RA_OF_ASC_NODE":241.9661,"ARG_OF_PERICENTER":270.3265,"MEAN_ANOMALY":89.6859,"EPHEMERIS_TYPE":0,"CLASSIFICATION_TYPE":"U","NORAD_CAT_ID":46984,"ELEMENT_SET_NO":999,"REV_AT_EPOCH":25373,"BSTAR":-2.9485e-5,"MEAN_MOTION_DOT":-6.8e-7,"MEAN_MOTION_DDOT":0},{"OBJECT_NAME":"GAOFEN-12 02","OBJECT_ID":"2021-026A","EPOCH":"2026-04-26T20:28:13.590048","MEAN_MOTION":14.80253874,"ECCENTRICITY":0.0005923,"INCLINATION":97.9926,"RA_OF_ASC_NODE":115.2465,"ARG_OF_PERICENTER":52.1641,"MEAN_ANOMALY":308.0106,"EPHEMERIS_TYPE":0,"CLASSIFICATION_TYPE":"U","NORAD_CAT_ID":48079,"ELEMENT_SET_NO":999,"REV_AT_EPOCH":27416,"BSTAR":7.0024e-5,"MEAN_MOTION_DOT":4.8e-6,"MEAN_MOTION_DDOT":0},{"OBJECT_NAME":"PLEIADES NEO 3","OBJECT_ID":"2021-034A","EPOCH":"2026-04-26T20:39:45.222048","MEAN_MOTION":14.81668969,"ECCENTRICITY":0.0001361,"INCLINATION":97.8932,"RA_OF_ASC_NODE":192.3647,"ARG_OF_PERICENTER":102.355,"MEAN_ANOMALY":257.7815,"EPHEMERIS_TYPE":0,"CLASSIFICATION_TYPE":"U","NORAD_CAT_ID":48268,"ELEMENT_SET_NO":999,"REV_AT_EPOCH":27005,"BSTAR":3.9213e-5,"MEAN_MOTION_DOT":2.57e-6,"MEAN_MOTION_DDOT":0},{"OBJECT_NAME":"PLEIADES NEO 4","OBJECT_ID":"2021-073E","EPOCH":"2026-04-25T14:40:40.224288","MEAN_MOTION":14.81673986,"ECCENTRICITY":0.00012757,"INCLINATION":97.8923,"RA_OF_ASC_NODE":191.1293,"ARG_OF_PERICENTER":93.1075,"MEAN_ANOMALY":267.0284,"EPHEMERIS_TYPE":0,"CLASSIFICATION_TYPE":"U","NORAD_CAT_ID":49070,"ELEMENT_SET_NO":999,"REV_AT_EPOCH":25358,"BSTAR":-6.2253235e-5,"MEAN_MOTION_DOT":-5.42e-6,"MEAN_MOTION_DDOT":0},{"OBJECT_NAME":"LANDSAT 9","OBJECT_ID":"2021-088A","EPOCH":"2026-04-26T18:19:09.297120","MEAN_MOTION":14.57121154,"ECCENTRICITY":0.0001254,"INCLINATION":98.1872,"RA_OF_ASC_NODE":187.7535,"ARG_OF_PERICENTER":105.3534,"MEAN_ANOMALY":254.7803,"EPHEMERIS_TYPE":0,"CLASSIFICATION_TYPE":"U","NORAD_CAT_ID":49260,"ELEMENT_SET_NO":999,"REV_AT_EPOCH":24351,"BSTAR":9.4281e-5,"MEAN_MOTION_DOT":3.8e-6,"MEAN_MOTION_DDOT":0}]
