GAOFEN-6                
1 43484U 18048A   26116.84110020  .00000296  00000+0  49501-4 0  9995
2 43484  97.7790 181.3981 0011773 348.7606  11.3340 14.76567906425811
GAOFEN-11 01            
1 43585U 18063A   26116.86956490  .00012388  00000+0  19455-3 0  9994
2 43585  97.1329 183.9416 0004975 144.6039 215.5547 15.53777814432378
ICESAT-2                
1 43613U 18070A   26116.81940913  .00003301  00000+0  11966-3 0  9996
2 43613  92.0020 277.1226 0002172  58.6043 301.5419 15.28314774424619
HYSIS                   
1 43719U 18096A   26116.84973656  .00000612  00000+0  90586-4 0  9992
2 43719  97.9865 183.9923 0000819  78.8763 281.2540 14.78667114399831
KAZSTSAT                
1 43783U 18099AB  26116.59196553  .00000979  00000+0  83711-4 0  9999
2 43783  97.4368 150.8536 0003986 194.6836 165.4273 14.99776516403577
SAUDISAT 5A             
1 43831U 18102A   26116.81515723  .00006115  00000+0  22969-3 0  9992
2 43831  97.3108 179.3961 0008470 323.9745  36.0922 15.27514823407839
SAUDISAT 5B             
1 43833U 18102C   26116.84311722  .00006492  00000+0  24153-3 0  9995
2 43833  97.3210 182.4007 0009219 325.7465  34.3179 15.27800697407957
GAOFEN-10R              
1 44622U 19066A   26116.87515631  .00001383  00000+0  17712-3 0  9997
2 44622  98.0464  70.0961 0004546 316.4604  43.6250 14.82943152354772
CARTOSAT-3              
1 44804U 19081A   26116.84951691  .00003637  00000+0  17536-3 0  9991
2 44804  97.4340 179.5306 0011182 336.7002  23.3724 15.19288197355672
GAOFEN-12 01            
1 44819U 19082A   26116.84731450  .00000463  00000+0  67253-4 0  9993
2 44819  97.8120 124.5811 0001465 127.6283 232.5062 14.80415606346493
CSG-1                   
1 44873U 19092A   26116.81086551  .00000524  00000+0  72433-4 0  9990
2 44873  97.8888 301.1565 0001301  93.3097 266.8265 14.82155029343869
NEMO-HD                 
1 46277U 20061F   26116.86745216  .00012885  00000+0  28881-3 0  9993
2 46277  97.1962 179.3685 0001473 132.0848 228.0526 15.43547071314068
SENTINEL-6A             
1 46984U 20086A   26116.71153297 -.00000068  00000+0 -29485-4 0  9995
2 46984  66.0413 241.9661 0007782 270.3265  89.6859 12.80930901253739
GAOFEN-12 02            
1 48079U 21026A   26116.85293507  .00000480  00000+0  70024-4 0  9992
2 48079  97.9926 115.2465 0005923  52.1641 308.0106 14.80253874274164
PLEIADES NEO 3          
1 48268U 21034A   26116.86094007  .00000257  00000+0  39213-4 0  9993
2 48268  97.8932 192.3647 0001361 102.3550 257.7815 14.81668969270054
PLEIADES NEO 4          
1 49070U 21073E   26115.61157667 -.00000542  00000+0 -62253-4 0  9991
2 49070  97.8923 191.1293 0001275  93.1075 267.0284 14.81673986253581
LANDSAT 9               
1 49260U 21088A   26116.76330205  .00000380  00000+0  94281-4 0  9990
2 49260  98.1872 187.7535 0001254 105.3534 254.7803 14.57121154243512
